{
    "links": {
        "self": "http://www.neowsapp.com/rest/v1/neo/3702917?api_key=iIulBulltgU6a56xZRHN4H3l9WmuAYTsLGpBGhQ2"
    },
    "id": "3702917",
    "neo_reference_id": "3702917",
    "name": "(2014 YB9)",
    "designation": "2014 YB9",
    "nasa_jpl_url": "http://ssd.jpl.nasa.gov/sbdb.cgi?sstr=3702917",
    "absolute_magnitude_h": 27.5,
    "estimated_diameter": {
        "kilometers": {
            "estimated_diameter_min": 0.008405334,
            "estimated_diameter_max": 0.0187948982
        },
        "meters": {
            "estimated_diameter_min": 8.4053340207,
            "estimated_diameter_max": 18.7948982439
        },
        "miles": {
            "estimated_diameter_min": 0.0052228308,
            "estimated_diameter_max": 0.0116786047
        },
        "feet": {
            "estimated_diameter_min": 27.5765560686,
            "estimated_diameter_max": 61.6630539546
        }
    },
    "is_potentially_hazardous_asteroid": false,
    "close_approach_data": [
        {
            "close_approach_date": "1947-01-06",
            "close_approach_date_full": "1947-Jan-06 12:34",
            "epoch_date_close_approach": -725369160000,
            "relative_velocity": {
                "kilometers_per_second": "13.3926384758",
                "kilometers_per_hour": "48213.4985130208",
                "miles_per_hour": "29957.9930066045"
            },
            "miss_distance": {
                "astronomical": "0.2424023633",
                "lunar": "94.2945193237",
                "kilometers": "36262877.232646171",
                "miles": "22532707.0568563198"
            },
            "orbiting_body": "Earth"
        },
        {
            "close_approach_date": "2014-12-15",
            "close_approach_date_full": "2014-Dec-15 07:41",
            "epoch_date_close_approach": 1418629260000,
            "relative_velocity": {
                "kilometers_per_second": "6.4222203201",
                "kilometers_per_hour": "23119.9931521819",
                "miles_per_hour": "14365.864633921"
            },
            "miss_distance": {
                "astronomical": "0.009960636",
                "lunar": "3.874687404",
                "kilometers": "1490089.92944532",
                "miles": "925898.947652616"
            },
            "orbiting_body": "Earth"
        }
    ],
    "orbital_data": {
        "orbit_id": "4",
        "orbit_determination_date": "2019-07-18 07:27:15",
        "first_observation_date": "2014-12-21",
        "last_observation_date": "2014-12-26",
        "data_arc_in_days": 5,
        "observations_used": 10,
        "orbit_uncertainty": "8",
        "minimum_orbit_intersection": ".00580839",
        "jupiter_tisserand_invariant": "4.672",
        "epoch_osculation": "2457015.5",
        "eccentricity": ".3210034504143084",
        "semi_major_axis": "1.410730954290244",
        "inclination": "4.539716636540643",
        "ascending_node_longitude": "84.72084350929325",
        "orbital_period": "612.0187400760741",
        "perihelion_distance": ".9578814503568058",
        "perihelion_argument": "327.520766082449",
        "aphelion_distance": "1.863580458223683",
        "perihelion_time": "2456981.091281811800",
        "mean_anomaly": "20.23980269985242",
        "mean_motion": ".5882172822931074",
        "equinox": "J2000",
        "orbit_class": {
            "orbit_class_type": "APO",
            "orbit_class_description": "Near-Earth asteroid orbits which cross the Earth’s orbit similar to that of 1862 Apollo",
            "orbit_class_range": "a (semi-major axis) > 1.0 AU; q (perihelion) < 1.017 AU"
        }
    },
    "is_sentry_object": false
}